{"type": "FeatureCollection", "features": [ {"type": "Feature", "properties": {"norad_id": 43010, "name": "FENGYUN 3D", "group": "weather", "lat": -79.51033339483588, "lon": 87.34548214819053, "alt_km": 834.2620180542954, "timestamp": "2025-12-25T14:48:24.448553+00:00", "meta": {"OBJECT_NAME": "FENGYUN 3D", "OBJECT_ID": "2017-072A", "EPOCH": "2025-12-25T06:47:54.742272", "MEAN_MOTION": 14.19687441, "ECCENTRICITY": 0.00015285, "INCLINATION": 98.9914, "RA_OF_ASC_NODE": 325.782, "ARG_OF_PERICENTER": 146.2462, "MEAN_ANOMALY": 213.8811, "EPHEMERIS_TYPE": 0, "CLASSIFICATION_TYPE": "U", "NORAD_CAT_ID": 43010, "ELEMENT_SET_NO": 999, "REV_AT_EPOCH": 42031, "BSTAR": 7.0644157e-05, "MEAN_MOTION_DOT": 1.03e-06, "MEAN_MOTION_DDOT": 0}, "tle": {"line1": "1 43010U 17072A   25359.28327248  .00000103  00000+0  70644-4 0  9993", "line2": "2 43010  98.9914 325.7820 0001528 146.2462 213.8811 14.19687441420317"}}, "geometry": {"type": "Point", "coordinates": [87.34548214819053, -79.51033339483588]}}, {"type": "Feature", "properties": {"norad_id": 43013, "name": "NOAA 20 (JPSS-1)", "group": "weather", "lat": 48.450705551468815, "lon": -74.24731890735917, "alt_km": 821.1354505578529, "timestamp": "2025-12-25T14:48:24.448564+00:00", "meta": {"OBJECT_NAME": "NOAA 20 (JPSS-1)", "OBJECT_ID": "2017-073A", "EPOCH": "2025-12-25T01:02:33.236736", "MEAN_MOTION": 14.19528938, "ECCENTRICITY": 0.00020738, "INCLINATION": 98.7615, "RA_OF_ASC_NODE": 295.2065, "ARG_OF_PERICENTER": 69.6621, "MEAN_ANOMALY": 290.4778, "EPHEMERIS_TYPE": 0, "CLASSIFICATION_TYPE": "U", "NORAD_CAT_ID": 43013, "ELEMENT_SET_NO": 999, "REV_AT_EPOCH": 41976, "BSTAR": 6.5292688e-05, "MEAN_MOTION_DOT": 9.4e-07, "MEAN_MOTION_DDOT": 0}, "tle": {"line1": "1 43013U 17073A   25359.04344024  .00000094  00000+0  65293-4 0  9995", "line2": "2 43013  98.7615 295.2065 0002073  69.6621 290.4778 14.19528938419764"}}, "geometry": {"type": "Point", "coordinates": [-74.24731890735917, 48.450705551468815]}}, {"type": "Feature", "properties": {"norad_id": 43226, "name": "GOES 17", "group": "weather", "lat": 0.3163073537487479, "lon": -133.05613123591974, "alt_km": 35778.13186507684, "timestamp": "2025-12-25T14:48:24.448585+00:00", "meta": {"OBJECT_NAME": "GOES 17", "OBJECT_ID": "2018-022A", "EPOCH": "2025-12-24T22:56:44.494656", "MEAN_MOTION": 1.00272054, "ECCENTRICITY": 0.00030905, "INCLINATION": 0.4873, "RA_OF_ASC_NODE": 89.0534, "ARG_OF_PERICENTER": 190.9391, "MEAN_ANOMALY": 68.4163, "EPHEMERIS_TYPE": 0, "CLASSIFICATION_TYPE": "U", "NORAD_CAT_ID": 43226, "ELEMENT_SET_NO": 999, "REV_AT_EPOCH": 2867, "BSTAR": 0, "MEAN_MOTION_DOT": -1.62e-06, "MEAN_MOTION_DDOT": 0}, "tle": {"line1": "1 43226U 18022A   25358.95607054 -.00000162  00000+0  00000+0 0  9997", "line2": "2 43226   0.4873  89.0534 0003090 190.9391  68.4163  1.00272054 28676"}}, "geometry": {"type": "Point", "coordinates": [-133.05613123591974, 0.3163073537487479]}}, {"type": "Feature", "properties": {"norad_id": 43491, "name": "FENGYUN 2H", "group": "weather", "lat": -1.8311679909580265, "lon": 35.850398998173176, "alt_km": 35795.321096279346, "timestamp": "2025-12-25T14:48:24.448600+00:00", "meta": {"OBJECT_NAME": "FENGYUN 2H", "OBJECT_ID": "2018-050A", "EPOCH": "2025-12-24T23:44:54.879648", "MEAN_MOTION": 1.00270521, "ECCENTRICITY": 0.00024075, "INCLINATION": 2.5805, "RA_OF_ASC_NODE": 81.201, "ARG_OF_PERICENTER": 166.3972, "MEAN_ANOMALY": 281.7245, "EPHEMERIS_TYPE": 0, "CLASSIFICATION_TYPE": "U", "NORAD_CAT_ID": 43491, "ELEMENT_SET_NO": 999, "REV_AT_EPOCH": 2769, "BSTAR": 0, "MEAN_MOTION_DOT": -1.09e-06, "MEAN_MOTION_DDOT": 0}, "tle": {"line1": "1 43491U 18050A   25358.98952407 -.00000109  00000+0  00000+0 0  9991", "line2": "2 43491   2.5805  81.2010 0002407 166.3972 281.7245  1.00270521 27693"}}, "geometry": {"type": "Point", "coordinates": [35.850398998173176, -1.8311679909580265]}}, {"type": "Feature", "properties": {"norad_id": 43689, "name": "METOP-C", "group": "weather", "lat": -76.07478347353639, "lon": 95.28007654402305, "alt_km": 827.6552968314891, "timestamp": "2025-12-25T14:48:24.448611+00:00", "meta": {"OBJECT_NAME": "METOP-C", "OBJECT_ID": "2018-087A", "EPOCH": "2025-12-25T06:43:54.056064", "MEAN_MOTION": 14.21489066, "ECCENTRICITY": 6.24e-05, "INCLINATION": 98.6912, "RA_OF_ASC_NODE": 56.8569, "ARG_OF_PERICENTER": 15.7397, "MEAN_ANOMALY": 344.3799, "EPHEMERIS_TYPE": 0, "CLASSIFICATION_TYPE": "U", "NORAD_CAT_ID": 43689, "ELEMENT_SET_NO": 999, "REV_AT_EPOCH": 37012, "BSTAR": 8.0540723e-05, "MEAN_MOTION_DOT": 1.33e-06, "MEAN_MOTION_DDOT": 0}, "tle": {"line1": "1 43689U 18087A   25359.28048676  .00000133  00000+0  80541-4 0  9997", "line2": "2 43689  98.6912  56.8569 0000624  15.7397 344.3799 14.21489066370123"}}, "geometry": {"type": "Point", "coordinates": [95.28007654402305, -76.07478347353639]}}, {"type": "Feature", "properties": {"norad_id": 43823, "name": "GEO-KOMPSAT-2A", "group": "weather", "lat": -0.017408669677413488, "lon": 84.71027477830405, "alt_km": 35785.71366328877, "timestamp": "2025-12-25T14:48:24.448622+00:00", "meta": {"OBJECT_NAME": "GEO-KOMPSAT-2A", "OBJECT_ID": "2018-100A", "EPOCH": "2025-12-24T05:33:51.801120", "MEAN_MOTION": 1.00269294, "ECCENTRICITY": 3.001e-05, "INCLINATION": 0.0444, "RA_OF_ASC_NODE": 175.8502, "ARG_OF_PERICENTER": 270.743, "MEAN_ANOMALY": 218.1364, "EPHEMERIS_TYPE": 0, "CLASSIFICATION_TYPE": "U", "NORAD_CAT_ID": 43823, "ELEMENT_SET_NO": 999, "REV_AT_EPOCH": 2587, "BSTAR": 0, "MEAN_MOTION_DOT": -3.23e-06, "MEAN_MOTION_DDOT": 0}, "tle": {"line1": "1 43823U 18100A   25358.23184955 -.00000323  00000+0  00000+0 0  9997", "line2": "2 43823   0.0444 175.8502 0000300 270.7430 218.1364  1.00269294 25878"}}, "geometry": {"type": "Point", "coordinates": [84.71027477830405, -0.017408669677413488]}}, {"type": "Feature", "properties": {"norad_id": 44387, "name": "METEOR-M2 2", "group": "weather", "lat": 53.74235341501709, "lon": 171.83816442327728, "alt_km": 804.4604976133824, "timestamp": "2025-12-25T14:48:24.448634+00:00", "meta": {"OBJECT_NAME": "METEOR-M2 2", "OBJECT_ID": "2019-038A", "EPOCH": "2025-12-25T05:47:27.515616", "MEAN_MOTION": 14.24296473, "ECCENTRICITY": 0.00017972, "INCLINATION": 98.8987, "RA_OF_ASC_NODE": 339.1236, "ARG_OF_PERICENTER": 124.1589, "MEAN_ANOMALY": 235.976, "EPHEMERIS_TYPE": 0, "CLASSIFICATION_TYPE": "U", "NORAD_CAT_ID": 44387, "ELEMENT_SET_NO": 999, "REV_AT_EPOCH": 33653, "BSTAR": 9.5231841e-05, "MEAN_MOTION_DOT": 1.74e-06, "MEAN_MOTION_DDOT": 0}, "tle": {"line1": "1 44387U 19038A   25359.24129069  .00000174  00000+0  95232-4 0  9990", "line2": "2 44387  98.8987 339.1236 0001797 124.1589 235.9760 14.24296473336532"}}, "geometry": {"type": "Point", "coordinates": [171.83816442327728, 53.74235341501709]}}, {"type": "Feature", "properties": {"norad_id": 47719, "name": "ARKTIKA-M 1", "group": "weather", "lat": 49.987278384218506, "lon": 119.30759699113788, "alt_km": 27583.94376362261, "timestamp": "2025-12-25T14:48:24.448647+00:00", "meta": {"OBJECT_NAME": "ARKTIKA-M 1", "OBJECT_ID": "2021-016A", "EPOCH": "2025-12-25T00:52:45.922368", "MEAN_MOTION": 2.00630507, "ECCENTRICITY": 0.7210339, "INCLINATION": 63.177, "RA_OF_ASC_NODE": 82.3163, "ARG_OF_PERICENTER": 269.1694, "MEAN_ANOMALY": 15.5374, "EPHEMERIS_TYPE": 0, "CLASSIFICATION_TYPE": "U", "NORAD_CAT_ID": 47719, "ELEMENT_SET_NO": 999, "REV_AT_EPOCH": 3529, "BSTAR": 0, "MEAN_MOTION_DOT": -4.3e-07, "MEAN_MOTION_DDOT": 0}, "tle": {"line1": "1 47719U 21016A   25359.03664262 -.00000043  00000+0  00000+0 0  9997", "line2": "2 47719  63.1770  82.3163 7210339 269.1694  15.5374  2.00630507 35296"}}, "geometry": {"type": "Point", "coordinates": [119.30759699113788, 49.987278384218506]}}, {"type": "Feature", "properties": {"norad_id": 49008, "name": "FENGYUN 3E", "group": "weather", "lat": -58.94816296263134, "lon": 165.16869542312244, "alt_km": 832.4124165219355, "timestamp": "2025-12-25T14:48:24.448660+00:00", "meta": {"OBJECT_NAME": "FENGYUN 3E", "OBJECT_ID": "2021-062A", "EPOCH": "2025-12-25T06:54:53.407296", "MEAN_MOTION": 14.19881606, "ECCENTRICITY": 9.359e-05, "INCLINATION": 98.7476, "RA_OF_ASC_NODE": 359.6603, "ARG_OF_PERICENTER": 190.1199, "MEAN_ANOMALY": 169.9958, "EPHEMERIS_TYPE": 0, "CLASSIFICATION_TYPE": "U", "NORAD_CAT_ID": 49008, "ELEMENT_SET_NO": 999, "REV_AT_EPOCH": 23190, "BSTAR": 9.8479822e-05, "MEAN_MOTION_DOT": 1.65e-06, "MEAN_MOTION_DDOT": 0}, "tle": {"line1": "1 49008U 21062A   25359.28811814  .00000165  00000+0  98480-4 0  9993", "line2": "2 49008  98.7476 359.6603 0000935 190.1199 169.9958 14.19881606231909"}}, "geometry": {"type": "Point", "coordinates": [165.16869542312244, -58.94816296263134]}}, {"type": "Feature", "properties": {"norad_id": 51850, "name": "GOES 18", "group": "weather", "lat": -0.00011980041324627814, "lon": 179.46278150201027, "alt_km": 35787.44860482054, "timestamp": "2025-12-25T14:48:24.448671+00:00", "meta": {"OBJECT_NAME": "GOES 18", "OBJECT_ID": "2022-021A", "EPOCH": "2025-12-25T02:08:26.134368", "MEAN_MOTION": 1.00271254, "ECCENTRICITY": 4.057e-05, "INCLINATION": 0.0027, "RA_OF_ASC_NODE": 276.3002, "ARG_OF_PERICENTER": 41.3938, "MEAN_ANOMALY": 31.2662, "EPHEMERIS_TYPE": 0, "CLASSIFICATION_TYPE": "U", "NORAD_CAT_ID": 51850, "ELEMENT_SET_NO": 999, "REV_AT_EPOCH": 484, "BSTAR": 0, "MEAN_MOTION_DOT": 1.18e-06, "MEAN_MOTION_DDOT": 0}, "tle": {"line1": "1 51850U 22021A   25359.08919137  .00000118  00000+0  00000+0 0  9996", "line2": "2 51850   0.0027 276.3002 0000405  41.3938  31.2662  1.00271254  4845"}}, "geometry": {"type": "Point", "coordinates": [179.46278150201027, -0.00011980041324627814]}}]}